[{"OBJECT_NAME":"LDPE-2","OBJECT_ID":"2022-144A","EPOCH":"2026-03-07T14:17:01.804128","MEAN_MOTION":1.00556765,"ECCENTRICITY":3.34e-5,"INCLINATION":5.3957,"RA_OF_ASC_NODE":64.2801,"ARG_OF_PERICENTER":249.6167,"MEAN_ANOMALY":172.1684,"EPHEMERIS_TYPE":0,"CLASSIFICATION_TYPE":"U","NORAD_CAT_ID":54219,"ELEMENT_SET_NO":999,"REV_AT_EPOCH":1082,"BSTAR":0,"MEAN_MOTION_DOT":-3.59e-6,"MEAN_MOTION_DDOT":0},{"OBJECT_NAME":"EUTELSAT HOTBIRD 13G","OBJECT_ID":"2022-146A","EPOCH":"2026-03-06T22:46:38.904960","MEAN_MOTION":1.0027129,"ECCENTRICITY":0.0001685,"INCLINATION":0.0459,"RA_OF_ASC_NODE":227.8604,"ARG_OF_PERICENTER":304.5083,"MEAN_ANOMALY":346.9469,"EPHEMERIS_TYPE":0,"CLASSIFICATION_TYPE":"U","NORAD_CAT_ID":54225,"ELEMENT_SET_NO":999,"REV_AT_EPOCH":644,"BSTAR":0,"MEAN_MOTION_DOT":8.4e-7,"MEAN_MOTION_DDOT":0},{"OBJECT_NAME":"ZHONGXING-19","OBJECT_ID":"2022-148A","EPOCH":"2026-03-07T10:58:21.548640","MEAN_MOTION":1.00271897,"ECCENTRICITY":0.00025632,"INCLINATION":0.027,"RA_OF_ASC_NODE":97.3304,"ARG_OF_PERICENTER":250.551,"MEAN_ANOMALY":145.073,"EPHEMERIS_TYPE":0,"CLASSIFICATION_TYPE":"U","NORAD_CAT_ID":54230,"ELEMENT_SET_NO":999,"REV_AT_EPOCH":1236,"BSTAR":0,"MEAN_MOTION_DOT":-8.3e-7,"MEAN_MOTION_DDOT":0},{"OBJECT_NAME":"GALAXY 31 (G-31)","OBJECT_ID":"2022-153A","EPOCH":"2026-03-07T11:10:38.474112","MEAN_MOTION":1.00272285,"ECCENTRICITY":0.00014666,"INCLINATION":0.0094,"RA_OF_ASC_NODE":167.8142,"ARG_OF_PERICENTER":192.5841,"MEAN_ANOMALY":211.4212,"EPHEMERIS_TYPE":0,"CLASSIFICATION_TYPE":"U","NORAD_CAT_ID":54243,"ELEMENT_SET_NO":999,"REV_AT_EPOCH":611,"BSTAR":0,"MEAN_MOTION_DOT":1.2e-7,"MEAN_MOTION_DDOT":0},{"OBJECT_NAME":"GALAXY 32 (G-32)","OBJECT_ID":"2022-153B","EPOCH":"2026-03-07T03:12:59.522400","MEAN_MOTION":1.00272304,"ECCENTRICITY":0.00029908,"INCLINATION":0.0185,"RA_OF_ASC_NODE":107.4788,"ARG_OF_PERICENTER":249.2635,"MEAN_ANOMALY":125.3419,"EPHEMERIS_TYPE":0,"CLASSIFICATION_TYPE":"U","NORAD_CAT_ID":54244,"ELEMENT_SET_NO":999,"REV_AT_EPOCH":1212,"BSTAR":0,"MEAN_MOTION_DOT":-1.77e-6,"MEAN_MOTION_DDOT":0},{"OBJECT_NAME":"EUTELSAT 10B","OBJECT_ID":"2022-157A","EPOCH":"2026-03-07T06:22:38.729856","MEAN_MOTION":1.00269,"ECCENTRICITY":0.0001671,"INCLINATION":0.0587,"RA_OF_ASC_NODE":101.8151,"ARG_OF_PERICENTER":6.6962,"MEAN_ANOMALY":162.0683,"EPHEMERIS_TYPE":0,"CLASSIFICATION_TYPE":"U","NORAD_CAT_ID":54259,"ELEMENT_SET_NO":999,"REV_AT_EPOCH":1200,"BSTAR":0,"MEAN_MOTION_DOT":6.5e-7,"MEAN_MOTION_DDOT":0},{"OBJECT_NAME":"GALAXY 35 (G-35)","OBJECT_ID":"2022-170A","EPOCH":"2026-03-07T07:54:38.721312","MEAN_MOTION":1.00270909,"ECCENTRICITY":0.00020099,"INCLINATION":0.0093,"RA_OF_ASC_NODE":174.1461,"ARG_OF_PERICENTER":176.9389,"MEAN_ANOMALY":199.4965,"EPHEMERIS_TYPE":0,"CLASSIFICATION_TYPE":"U","NORAD_CAT_ID":54741,"ELEMENT_SET_NO":999,"REV_AT_EPOCH":1187,"BSTAR":0,"MEAN_MOTION_DOT":-1.64e-6,"MEAN_MOTION_DDOT":0},{"OBJECT_NAME":"GALAXY 36 (G-36)","OBJECT_ID":"2022-170B","EPOCH":"2026-03-07T08:26:38.710752","MEAN_MOTION":1.00272318,"ECCENTRICITY":0.00021644,"INCLINATION":0.0208,"RA_OF_ASC_NODE":132.9369,"ARG_OF_PERICENTER":268.2013,"MEAN_ANOMALY":161.5705,"EPHEMERIS_TYPE":0,"CLASSIFICATION_TYPE":"U","NORAD_CAT_ID":54742,"ELEMENT_SET_NO":999,"REV_AT_EPOCH":1175,"BSTAR":0,"MEAN_MOTION_DOT":-1.87e-6,"MEAN_MOTION_DDOT":0},{"OBJECT_NAME":"METEOSAT-12 (MTG-I1)","OBJECT_ID":"2022-170C","EPOCH":"2026-03-07T06:22:38.729856","MEAN_MOTION":1.00270148,"ECCENTRICITY":0.0001981,"INCLINATION":0.7039,"RA_OF_ASC_NODE":21.8437,"ARG_OF_PERICENTER":288.826,"MEAN_ANOMALY":309.6474,"EPHEMERIS_TYPE":0,"CLASSIFICATION_TYPE":"U","NORAD_CAT_ID":54743,"ELEMENT_SET_NO":999,"REV_AT_EPOCH":1195,"BSTAR":0,"MEAN_MOTION_DOT":-1.0e-7,"MEAN_MOTION_DDOT":0},{"OBJECT_NAME":"SHIJIAN-23 (SJ-23)","OBJECT_ID":"2023-002A","EPOCH":"2026-03-07T18:45:50.768640","MEAN_MOTION":1.00486965,"ECCENTRICITY":0.0005808,"INCLINATION":3.4567,"RA_OF_ASC_NODE":79.6106,"ARG_OF_PERICENTER":263.8697,"MEAN_ANOMALY":235.5951,"EPHEMERIS_TYPE":0,"CLASSIFICATION_TYPE":"U","NORAD_CAT_ID":55131,"ELEMENT_SET_NO":999,"REV_AT_EPOCH":1149,"BSTAR":0,"MEAN_MOTION_DOT":-2.99e-6,"MEAN_MOTION_DDOT":0},{"OBJECT_NAME":"APSTAR-6E","OBJECT_ID":"2023-005A","EPOCH":"2026-03-07T14:35:42.393120","MEAN_MOTION":1.00270587,"ECCENTRICITY":0.00011465,"INCLINATION":0.045,"RA_OF_ASC_NODE":245.6183,"ARG_OF_PERICENTER":70.3731,"MEAN_ANOMALY":202.2346,"EPHEMERIS_TYPE":0,"CLASSIFICATION_TYPE":"U","NORAD_CAT_ID":55239,"ELEMENT_SET_NO":999,"REV_AT_EPOCH":1767,"BSTAR":0,"MEAN_MOTION_DOT":-3.19e-6,"MEAN_MOTION_DDOT":0},{"OBJECT_NAME":"USA 342","OBJECT_ID":"2023-008A","EPOCH":"2026-03-07T03:45:48.874752","MEAN_MOTION":1.00269045,"ECCENTRICITY":1.67e-5,"INCLINATION":0.0146,"RA_OF_ASC_NODE":169.6721,"ARG_OF_PERICENTER":233.8626,"MEAN_ANOMALY":201.7217,"EPHEMERIS_TYPE":0,"CLASSIFICATION_TYPE":"U","NORAD_CAT_ID":55263,"ELEMENT_SET_NO":999,"REV_AT_EPOCH":1149,"BSTAR":0,"MEAN_MOTION_DOT":0,"MEAN_MOTION_DDOT":0},{"OBJECT_NAME":"ELEKTRO-L 4","OBJECT_ID":"2023-016A","EPOCH":"2026-03-07T01:57:43.140384","MEAN_MOTION":1.00272178,"ECCENTRICITY":0.00017705,"INCLINATION":0.0957,"RA_OF_ASC_NODE":295.2905,"ARG_OF_PERICENTER":352.0222,"MEAN_ANOMALY":72.6429,"EPHEMERIS_TYPE":0,"CLASSIFICATION_TYPE":"U","NORAD_CAT_ID":55506,"ELEMENT_SET_NO":999,"REV_AT_EPOCH":1131,"BSTAR":0,"MEAN_MOTION_DOT":-6.1e-7,"MEAN_MOTION_DDOT":0},{"OBJECT_NAME":"AMAZONAS NEXUS","OBJECT_ID":"2023-017A","EPOCH":"2026-03-07T06:46:54.013440","MEAN_MOTION":1.00270496,"ECCENTRICITY":0.00048811,"INCLINATION":0.0424,"RA_OF_ASC_NODE":37.8193,"ARG_OF_PERICENTER":330.2669,"MEAN_ANOMALY":197.6209,"EPHEMERIS_TYPE":0,"CLASSIFICATION_TYPE":"U","NORAD_CAT_ID":55508,"ELEMENT_SET_NO":999,"REV_AT_EPOCH":602,"BSTAR":0,"MEAN_MOTION_DOT":-2.84e-6,"MEAN_MOTION_DDOT":0},{"OBJECT_NAME":"ZHONGXING-26","OBJECT_ID":"2023-023A","EPOCH":"2026-03-06T11:07:51.422304","MEAN_MOTION":1.00273447,"ECCENTRICITY":0.00035392,"INCLINATION":0.0661,"RA_OF_ASC_NODE":72.8578,"ARG_OF_PERICENTER":326.8005,"MEAN_ANOMALY":56.5699,"EPHEMERIS_TYPE":0,"CLASSIFICATION_TYPE":"U","NORAD_CAT_ID":55686,"ELEMENT_SET_NO":999,"REV_AT_EPOCH":1120,"BSTAR":0,"MEAN_MOTION_DOT":-3.58e-6,"MEAN_MOTION_DDOT":0},{"OBJECT_NAME":"LUCH-5X (OLYMP-K 2)","OBJECT_ID":"2023-031A","EPOCH":"2026-03-07T17:30:42.317280","MEAN_MOTION":1.00279202,"ECCENTRICITY":0.0001827,"INCLINATION":0.0246,"RA_OF_ASC_NODE":91.2999,"ARG_OF_PERICENTER":134.4153,"MEAN_ANOMALY":264.3807,"EPHEMERIS_TYPE":0,"CLASSIFICATION_TYPE":"U","NORAD_CAT_ID":55841,"ELEMENT_SET_NO":999,"REV_AT_EPOCH":1092,"BSTAR":0,"MEAN_MOTION_DOT":3.1e-7,"MEAN_MOTION_DDOT":0},{"OBJECT_NAME":"GAOFEN-13 02","OBJECT_ID":"2023-036A","EPOCH":"2026-03-07T14:45:35.938656","MEAN_MOTION":1.0027487,"ECCENTRICITY":0.00051974,"INCLINATION":1.0313,"RA_OF_ASC_NODE":348.1597,"ARG_OF_PERICENTER":335.4677,"MEAN_ANOMALY":211.2792,"EPHEMERIS_TYPE":0,"CLASSIFICATION_TYPE":"U","NORAD_CAT_ID":55912,"ELEMENT_SET_NO":999,"REV_AT_EPOCH":1107,"BSTAR":0,"MEAN_MOTION_DOT":-2.19e-6,"MEAN_MOTION_DDOT":0}]
