LDPE-2                  
1 54219U 22144A   26066.59515977 -.00000359  00000+0  00000+0 0  9998
2 54219   5.3957  64.2801 0000334 249.6167 172.1684  1.00556765 10823
EUTELSAT HOTBIRD 13G    
1 54225U 22146A   26065.94906140  .00000084  00000+0  00000+0 0  9995
2 54225   0.0459 227.8604 0001685 304.5083 346.9469  1.00271290  6447
ZHONGXING-19            
1 54230U 22148A   26066.45719385 -.00000083  00000+0  00000+0 0  9993
2 54230   0.0270  97.3304 0002563 250.5510 145.0730  1.00271897 12362
GALAXY 31 (G-31)        
1 54243U 22153A   26066.46572308  .00000012  00000+0  00000+0 0  9997
2 54243   0.0094 167.8142 0001466 192.5841 211.4212  1.00272285  6117
GALAXY 32 (G-32)        
1 54244U 22153B   26066.13402225 -.00000177  00000+0  00000+0 0  9995
2 54244   0.0185 107.4788 0002990 249.2635 125.3419  1.00272304 12121
EUTELSAT 10B            
1 54259U 22157A   26066.26572604  .00000065  00000+0  00000+0 0  9993
2 54259   0.0587 101.8151 0001671   6.6962 162.0683  1.00269000 12005
GALAXY 35 (G-35)        
1 54741U 22170A   26066.32961483 -.00000164  00000+0  00000+0 0  9999
2 54741   0.0093 174.1461 0002009 176.9389 199.4965  1.00270909 11871
GALAXY 36 (G-36)        
1 54742U 22170B   26066.35183693 -.00000187  00000+0  00000+0 0  9997
2 54742   0.0208 132.9369 0002164 268.2013 161.5705  1.00272318 11755
METEOSAT-12 (MTG-I1)    
1 54743U 22170C   26066.26572604 -.00000010  00000+0  00000+0 0  9997
2 54743   0.7039  21.8437 0001981 288.8260 309.6474  1.00270148 11954
SHIJIAN-23 (SJ-23)      
1 55131U 23002A   26066.78183760 -.00000299  00000+0  00000+0 0  9991
2 55131   3.4567  79.6106 0005808 263.8697 235.5951  1.00486965 11497
APSTAR-6E               
1 55239U 23005A   26066.60812955 -.00000319  00000+0  00000+0 0  9992
2 55239   0.0450 245.6183 0001146  70.3731 202.2346  1.00270587 17677
USA 342                 
1 55263U 23008A   26066.15681568  .00000000  00000+0  00000+0 0  9992
2 55263   0.0146 169.6721 0000167 233.8626 201.7217  1.00269045 11492
ELEKTRO-L 4             
1 55506U 23016A   26066.08174931 -.00000061  00000+0  00000+0 0  9992
2 55506   0.0957 295.2905 0001770 352.0222  72.6429  1.00272178 11311
AMAZONAS NEXUS          
1 55508U 23017A   26066.28256960 -.00000284  00000+0  00000+0 0  9997
2 55508   0.0424  37.8193 0004881 330.2669 197.6209  1.00270496  6027
ZHONGXING-26            
1 55686U 23023A   26065.46378961 -.00000358  00000+0  00000+0 0  9998
2 55686   0.0661  72.8578 0003539 326.8005  56.5699  1.00273447 11208
LUCH-5X (OLYMP-K 2)     
1 55841U 23031A   26066.72965645  .00000031  00000+0  00000+0 0  9998
2 55841   0.0246  91.2999 0001827 134.4153 264.3807  1.00279202 10920
GAOFEN-13 02            
1 55912U 23036A   26066.61499929 -.00000219  00000+0  00000+0 0  9996
2 55912   1.0313 348.1597 0005197 335.4677 211.2792  1.00274870 11078
